[{"CCSDS_OMM_VERS":"2.0","COMMENT":"GENERATED VIA SPACE-TRACK.ORG API","CREATION_DATE":"2018-11-01T20:48:20","ORIGINATOR":"18 SPCS","OBJECT_NAME":"UPSAT","OBJECT_ID":"1998-067LX","CENTER_NAME":"EARTH","REF_FRAME":"TEME","TIME_SYSTEM":"UTC","MEAN_ELEMENT_THEORY":"SGP4","EPOCH":"2018-11-01T13:40:06.215232","MEAN_MOTION":"16.05134468","ECCENTRICITY":"0.00092270","INCLINATION":"51.6240","RA_OF_ASC_NODE":"353.4951","ARG_OF_PERICENTER":"27.2662","MEAN_ANOMALY":"332.8833","EPHEMERIS_TYPE":"0","CLASSIFICATION_TYPE":"U","NORAD_CAT_ID":"42716","ELEMENT_SET_NO":"999","REV_AT_EPOCH":"8356","BSTAR":"0.00057188000000","MEAN_MOTION_DOT":"0.00407377","MEAN_MOTION_DDOT":"0.0000876000000","SEMIMAJOR_AXIS":"6638.361","PERIOD":"89.712","APOAPSIS":"266.351","PERIAPSIS":"254.101","OBJECT_TYPE":"PAYLOAD","RCS_SIZE":"SMALL","COUNTRY_CODE":"GREC","LAUNCH_DATE":"1998-11-20","SITE":"TTMTR","DECAY_DATE":null,"FILE":"2353339","GP_ID":"124273939","TLE_LINE0":"0 UPSAT","TLE_LINE1":"1 42716U 98067LX  18305.56951638  .00407377  87600-4  57188-3 0  9995","TLE_LINE2":"2 42716  51.6240 353.4951 0009227  27.2662 332.8833 16.05134468 83565"},{"CCSDS_OMM_VERS":"2.0","COMMENT":"GENERATED VIA SPACE-TRACK.ORG API","CREATION_DATE":"2018-11-02T06:42:21","ORIGINATOR":"18 SPCS","OBJECT_NAME":"UPSAT","OBJECT_ID":"1998-067LX","CENTER_NAME":"EARTH","REF_FRAME":"TEME","TIME_SYSTEM":"UTC","MEAN_ELEMENT_THEORY":"SGP4","EPOCH":"2018-11-02T03:06:50.196096","MEAN_MOTION":"16.05605216","ECCENTRICITY":"0.00091590","INCLINATION":"51.6239","RA_OF_ASC_NODE":"350.4822","ARG_OF_PERICENTER":"29.4440","MEAN_ANOMALY":"330.7086","EPHEMERIS_TYPE":"0","CLASSIFICATION_TYPE":"U","NORAD_CAT_ID":"42716","ELEMENT_SET_NO":"999","REV_AT_EPOCH":"8365","BSTAR":"0.00058052000000","MEAN_MOTION_DOT":"0.00425801","MEAN_MOTION_DDOT":"0.0000955800000","SEMIMAJOR_AXIS":"6637.063","PERIOD":"89.685","APOAPSIS":"265.007","PERIAPSIS":"252.849","OBJECT_TYPE":"PAYLOAD","RCS_SIZE":"SMALL","COUNTRY_CODE":"GREC","LAUNCH_DATE":"1998-11-20","SITE":"TTMTR","DECAY_DATE":null,"FILE":"2353610","GP_ID":"124290254","TLE_LINE0":"0 UPSAT","TLE_LINE1":"1 42716U 98067LX  18306.12974764  .00425801  95580-4  58052-3 0  9992","TLE_LINE2":"2 42716  51.6239 350.4822 0009159  29.4440 330.7086 16.05605216 83650"},{"CCSDS_OMM_VERS":"2.0","COMMENT":"GENERATED VIA SPACE-TRACK.ORG API","CREATION_DATE":"2018-11-02T14:40:18","ORIGINATOR":"18 SPCS","OBJECT_NAME":"UPSAT","OBJECT_ID":"1998-067LX","CENTER_NAME":"EARTH","REF_FRAME":"TEME","TIME_SYSTEM":"UTC","MEAN_ELEMENT_THEORY":"SGP4","EPOCH":"2018-11-02T09:05:18.408192","MEAN_MOTION":"16.05818973","ECCENTRICITY":"0.00091150","INCLINATION":"51.6239","RA_OF_ASC_NODE":"349.1428","ARG_OF_PERICENTER":"31.1230","MEAN_ANOMALY":"329.0320","EPHEMERIS_TYPE":"0","CLASSIFICATION_TYPE":"U","NORAD_CAT_ID":"42716","ELEMENT_SET_NO":"999","REV_AT_EPOCH":"8369","BSTAR":"0.00056676000000","MEAN_MOTION_DOT":"0.00421209","MEAN_MOTION_DDOT":"0.0000939760000","SEMIMAJOR_AXIS":"6636.474","PERIOD":"89.673","APOAPSIS":"264.388","PERIAPSIS":"252.290","OBJECT_TYPE":"PAYLOAD","RCS_SIZE":"SMALL","COUNTRY_CODE":"GREC","LAUNCH_DATE":"1998-11-20","SITE":"TTMTR","DECAY_DATE":null,"FILE":"2353789","GP_ID":"124293666","TLE_LINE0":"0 UPSAT","TLE_LINE1":"1 42716U 98067LX  18306.37868528  .00421209  93976-4  56676-3 0  9994","TLE_LINE2":"2 42716  51.6239 349.1428 0009115  31.1230 329.0320 16.05818973 83698"},{"CCSDS_OMM_VERS":"2.0","COMMENT":"GENERATED VIA SPACE-TRACK.ORG API","CREATION_DATE":"2018-11-02T22:30:19","ORIGINATOR":"18 SPCS","OBJECT_NAME":"UPSAT","OBJECT_ID":"1998-067LX","CENTER_NAME":"EARTH","REF_FRAME":"TEME","TIME_SYSTEM":"UTC","MEAN_ELEMENT_THEORY":"SGP4","EPOCH":"2018-11-02T13:34:07.737312","MEAN_MOTION":"16.05977853","ECCENTRICITY":"0.00090970","INCLINATION":"51.6237","RA_OF_ASC_NODE":"348.1379","ARG_OF_PERICENTER":"32.3971","MEAN_ANOMALY":"327.7598","EPHEMERIS_TYPE":"0","CLASSIFICATION_TYPE":"U","NORAD_CAT_ID":"42716","ELEMENT_SET_NO":"999","REV_AT_EPOCH":"8372","BSTAR":"0.00055682000000","MEAN_MOTION_DOT":"0.00417904","MEAN_MOTION_DDOT":"0.0000928350000","SEMIMAJOR_AXIS":"6636.037","PERIOD":"89.664","APOAPSIS":"263.938","PERIAPSIS":"251.865","OBJECT_TYPE":"PAYLOAD","RCS_SIZE":"SMALL","COUNTRY_CODE":"GREC","LAUNCH_DATE":"1998-11-20","SITE":"TTMTR","DECAY_DATE":null,"FILE":"2353968","GP_ID":"124297440","TLE_LINE0":"0 UPSAT","TLE_LINE1":"1 42716U 98067LX  18306.56536733  .00417904  92835-4  55682-3 0  9991","TLE_LINE2":"2 42716  51.6237 348.1379 0009097  32.3971 327.7598 16.05977853 83723"},{"CCSDS_OMM_VERS":"2.0","COMMENT":"GENERATED VIA SPACE-TRACK.ORG API","CREATION_DATE":"2018-11-03T06:42:16","ORIGINATOR":"18 SPCS","OBJECT_NAME":"UPSAT","OBJECT_ID":"1998-067LX","CENTER_NAME":"EARTH","REF_FRAME":"TEME","TIME_SYSTEM":"UTC","MEAN_ELEMENT_THEORY":"SGP4","EPOCH":"2018-11-03T03:00:25.920000","MEAN_MOTION":"16.06470347","ECCENTRICITY":"0.00089580","INCLINATION":"51.6231","RA_OF_ASC_NODE":"345.1227","ARG_OF_PERICENTER":"35.0772","MEAN_ANOMALY":"325.0829","EPHEMERIS_TYPE":"0","CLASSIFICATION_TYPE":"U","NORAD_CAT_ID":"42716","ELEMENT_SET_NO":"999","REV_AT_EPOCH":"8381","BSTAR":"0.00057592000000","MEAN_MOTION_DOT":"0.00445820","MEAN_MOTION_DDOT":"0.0001053600000","SEMIMAJOR_AXIS":"6634.680","PERIOD":"89.637","APOAPSIS":"262.489","PERIAPSIS":"250.602","OBJECT_TYPE":"PAYLOAD","RCS_SIZE":"SMALL","COUNTRY_CODE":"GREC","LAUNCH_DATE":"1998-11-20","SITE":"TTMTR","DECAY_DATE":null,"FILE":"2354108","GP_ID":"124311198","TLE_LINE0":"0 UPSAT","TLE_LINE1":"1 42716U 98067LX  18307.12530000  .00445820  10536-3  57592-3 0  9992","TLE_LINE2":"2 42716  51.6231 345.1227 0008958  35.0772 325.0829 16.06470347 83815"},{"CCSDS_OMM_VERS":"2.0","COMMENT":"GENERATED VIA SPACE-TRACK.ORG API","CREATION_DATE":"2018-11-03T14:32:17","ORIGINATOR":"18 SPCS","OBJECT_NAME":"UPSAT","OBJECT_ID":"1998-067LX","CENTER_NAME":"EARTH","REF_FRAME":"TEME","TIME_SYSTEM":"UTC","MEAN_ELEMENT_THEORY":"SGP4","EPOCH":"2018-11-03T08:58:42.371328","MEAN_MOTION":"16.06707870","ECCENTRICITY":"0.00088520","INCLINATION":"51.6230","RA_OF_ASC_NODE":"343.7819","ARG_OF_PERICENTER":"36.9199","MEAN_ANOMALY":"323.2422","EPHEMERIS_TYPE":"0","CLASSIFICATION_TYPE":"U","NORAD_CAT_ID":"42716","ELEMENT_SET_NO":"999","REV_AT_EPOCH":"8385","BSTAR":"0.00059501000000","MEAN_MOTION_DOT":"0.00467555","MEAN_MOTION_DDOT":"0.0001156300000","SEMIMAJOR_AXIS":"6634.026","PERIOD":"89.624","APOAPSIS":"261.764","PERIAPSIS":"250.019","OBJECT_TYPE":"PAYLOAD","RCS_SIZE":"SMALL","COUNTRY_CODE":"GREC","LAUNCH_DATE":"1998-11-20","SITE":"TTMTR","DECAY_DATE":null,"FILE":"2354289","GP_ID":"124314531","TLE_LINE0":"0 UPSAT","TLE_LINE1":"1 42716U 98067LX  18307.37410152  .00467555  11563-3  59501-3 0  9996","TLE_LINE2":"2 42716  51.6230 343.7819 0008852  36.9199 323.2422 16.06707870 83858"},{"CCSDS_OMM_VERS":"2.0","COMMENT":"GENERATED VIA SPACE-TRACK.ORG API","CREATION_DATE":"2018-11-03T22:34:19","ORIGINATOR":"18 SPCS","OBJECT_NAME":"UPSAT","OBJECT_ID":"1998-067LX","CENTER_NAME":"EARTH","REF_FRAME":"TEME","TIME_SYSTEM":"UTC","MEAN_ELEMENT_THEORY":"SGP4","EPOCH":"2018-11-03T13:27:22.624992","MEAN_MOTION":"16.06882482","ECCENTRICITY":"0.00088580","INCLINATION":"51.6227","RA_OF_ASC_NODE":"342.7761","ARG_OF_PERICENTER":"38.1653","MEAN_ANOMALY":"321.9986","EPHEMERIS_TYPE":"0","CLASSIFICATION_TYPE":"U","NORAD_CAT_ID":"42716","ELEMENT_SET_NO":"999","REV_AT_EPOCH":"8388","BSTAR":"0.00056235000000","MEAN_MOTION_DOT":"0.00446693","MEAN_MOTION_DDOT":"0.0001063700000","SEMIMAJOR_AXIS":"6633.546","PERIOD":"89.614","APOAPSIS":"261.287","PERIAPSIS":"249.535","OBJECT_TYPE":"PAYLOAD","RCS_SIZE":"SMALL","COUNTRY_CODE":"GREC","LAUNCH_DATE":"1998-11-20","SITE":"TTMTR","DECAY_DATE":null,"FILE":"2354490","GP_ID":"124318849","TLE_LINE0":"0 UPSAT","TLE_LINE1":"1 42716U 98067LX  18307.56067853  .00446693  10637-3  56235-3 0  9995","TLE_LINE2":"2 42716  51.6227 342.7761 0008858  38.1653 321.9986 16.06882482 83880"},{"CCSDS_OMM_VERS":"2.0","COMMENT":"GENERATED VIA SPACE-TRACK.ORG API","CREATION_DATE":"2018-11-04T06:42:18","ORIGINATOR":"18 SPCS","OBJECT_NAME":"UPSAT","OBJECT_ID":"1998-067LX","CENTER_NAME":"EARTH","REF_FRAME":"TEME","TIME_SYSTEM":"UTC","MEAN_ELEMENT_THEORY":"SGP4","EPOCH":"2018-11-04T02:53:12.134112","MEAN_MOTION":"16.07456271","ECCENTRICITY":"0.00087120","INCLINATION":"51.6222","RA_OF_ASC_NODE":"339.7586","ARG_OF_PERICENTER":"40.6979","MEAN_ANOMALY":"319.4683","EPHEMERIS_TYPE":"0","CLASSIFICATION_TYPE":"U","NORAD_CAT_ID":"42716","ELEMENT_SET_NO":"999","REV_AT_EPOCH":"8397","BSTAR":"0.00060815000000","MEAN_MOTION_DOT":"0.00501070","MEAN_MOTION_DDOT":"0.0001335000000","SEMIMAJOR_AXIS":"6631.967","PERIOD":"89.582","APOAPSIS":"259.610","PERIAPSIS":"248.054","OBJECT_TYPE":"PAYLOAD","RCS_SIZE":"SMALL","COUNTRY_CODE":"GREC","LAUNCH_DATE":"1998-11-20","SITE":"TTMTR","DECAY_DATE":null,"FILE":"2354677","GP_ID":"124333123","TLE_LINE0":"0 UPSAT","TLE_LINE1":"1 42716U 98067LX  18308.12027933  .00501070  13350-3  60815-3 0  9998","TLE_LINE2":"2 42716  51.6222 339.7586 0008712  40.6979 319.4683 16.07456271 83974"}]